STARLINK-35850          
1 66352U 25254E   25338.33335648 -.02008138  00000+0 -28514-1 0  9990
2 66352  53.1592 316.8643 0001248  71.3235 349.7281 15.59341692  5527
STARLINK-35869          
1 66353U 25254F   25338.33335648 -.01997252  00000+0 -28348-1 0  9999
2 66353  53.1594 316.8599 0001298  75.5921 347.3834 15.59331228  5570
STARLINK-35895          
1 66354U 25254G   25338.33335648 -.00152814  00000+0 -27876-2 0  9992
2 66354  53.1597 317.2717 0001381  76.7734 141.8237 15.49367927  5577
STARLINK-35861          
1 66355U 25254H   25338.33335648 -.01992234  00000+0 -28269-1 0  9998
2 66355  53.1591 316.8515 0001457  65.8616   0.9497 15.59326838  5575
STARLINK-35851          
1 66356U 25254J   25338.33335648 -.01994623  00000+0 -28307-1 0  9996
2 66356  53.1591 316.8470 0001398  74.9743 353.7534 15.59328622  5576
STARLINK-35817          
1 66357U 25254K   25338.33335648 -.02003323  00000+0 -28439-1 0  9992
2 66357  53.1592 316.8430 0001293  73.3802 357.2579 15.59337912  5577
STARLINK-35807          
1 66358U 25254L   25338.33335648 -.02002548  00000+0 -28426-1 0  9997
2 66358  53.1592 316.8385 0001345  71.3539   1.2009 15.59337453  5574
STARLINK-35805          
1 66359U 25254M   25338.33335648 -.02008572  00000+0 -28522-1 0  9998
2 66359  53.1593 316.8352 0001195  75.4657 359.0052 15.59341331  5548
STARLINK-35823          
1 66360U 25254N   25338.33335648 -.02009197  00000+0 -28531-1 0  9994
2 66360  53.1590 316.8263 0001213  73.8734   4.4311 15.59341926  5579
STARLINK-35813          
1 66361U 25254P   25338.33335648 -.02009336  00000+0 -28533-1 0  9992
2 66361  53.1592 316.8313 0001217  74.4652   1.9221 15.59342121  5578
STARLINK-35822          
1 66362U 25254Q   25338.33335648 -.01990829  00000+0 -28247-1 0  9990
2 66362  53.1591 316.8190 0001467  71.4156  10.7310 15.59326110  5571
STARLINK-35806          
1 66363U 25254R   25338.33335648 -.02002030  00000+0 -28418-1 0  9990
2 66363  53.1589 316.8228 0001361  71.1018   9.1207 15.59337070  5549
