CCSDS_OMM_VERS = 2.0
CREATION_DATE  = 
ORIGINATOR     = 

OBJECT_NAME    = STARLINK-35850
OBJECT_ID      = 2025-254E
CENTER_NAME    = EARTH
REF_FRAME      = TEME
TIME_SYSTEM    = UTC
MEAN_ELEMENT_THEORY = SGP/SGP4

EPOCH          = 2025-12-04T08:00:01.999872
MEAN_MOTION    = 15.59341692
ECCENTRICITY   = .00012487
INCLINATION    = 53.1592
RA_OF_ASC_NODE = 316.8643
ARG_OF_PERICENTER = 71.3235
MEAN_ANOMALY   = 349.7281

EPHEMERIS_TYPE = 0
CLASSIFICATION_TYPE = U
NORAD_CAT_ID   = 66352
ELEMENT_SET_NO = 999
REV_AT_EPOCH   = 552
BSTAR          = -.28513547E-1
MEAN_MOTION_DOT = -.2008138E-1
MEAN_MOTION_DDOT = 0

CCSDS_OMM_VERS = 2.0
CREATION_DATE  = 
ORIGINATOR     = 

OBJECT_NAME    = STARLINK-35869
OBJECT_ID      = 2025-254F
CENTER_NAME    = EARTH
REF_FRAME      = TEME
TIME_SYSTEM    = UTC
MEAN_ELEMENT_THEORY = SGP/SGP4

EPOCH          = 2025-12-04T08:00:01.999872
MEAN_MOTION    = 15.59331228
ECCENTRICITY   = .00012987
INCLINATION    = 53.1594
RA_OF_ASC_NODE = 316.8599
ARG_OF_PERICENTER = 75.5921
MEAN_ANOMALY   = 347.3834

EPHEMERIS_TYPE = 0
CLASSIFICATION_TYPE = U
NORAD_CAT_ID   = 66353
ELEMENT_SET_NO = 999
REV_AT_EPOCH   = 557
BSTAR          = -.28347858E-1
MEAN_MOTION_DOT = -.1997252E-1
MEAN_MOTION_DDOT = 0

CCSDS_OMM_VERS = 2.0
CREATION_DATE  = 
ORIGINATOR     = 

OBJECT_NAME    = STARLINK-35895
OBJECT_ID      = 2025-254G
CENTER_NAME    = EARTH
REF_FRAME      = TEME
TIME_SYSTEM    = UTC
MEAN_ELEMENT_THEORY = SGP/SGP4

EPOCH          = 2025-12-04T08:00:01.999872
MEAN_MOTION    = 15.49367927
ECCENTRICITY   = .00013811
INCLINATION    = 53.1597
RA_OF_ASC_NODE = 317.2717
ARG_OF_PERICENTER = 76.7734
MEAN_ANOMALY   = 141.8237

EPHEMERIS_TYPE = 0
CLASSIFICATION_TYPE = U
NORAD_CAT_ID   = 66354
ELEMENT_SET_NO = 999
REV_AT_EPOCH   = 557
BSTAR          = -.27876371E-2
MEAN_MOTION_DOT = -.152814E-2
MEAN_MOTION_DDOT = 0

CCSDS_OMM_VERS = 2.0
CREATION_DATE  = 
ORIGINATOR     = 

OBJECT_NAME    = STARLINK-35861
OBJECT_ID      = 2025-254H
CENTER_NAME    = EARTH
REF_FRAME      = TEME
TIME_SYSTEM    = UTC
MEAN_ELEMENT_THEORY = SGP/SGP4

EPOCH          = 2025-12-04T08:00:01.999872
MEAN_MOTION    = 15.59326838
ECCENTRICITY   = .00014575
INCLINATION    = 53.1591
RA_OF_ASC_NODE = 316.8515
ARG_OF_PERICENTER = 65.8616
MEAN_ANOMALY   = 0.9497

EPHEMERIS_TYPE = 0
CLASSIFICATION_TYPE = U
NORAD_CAT_ID   = 66355
ELEMENT_SET_NO = 999
REV_AT_EPOCH   = 557
BSTAR          = -.2826946E-1
MEAN_MOTION_DOT = -.1992234E-1
MEAN_MOTION_DDOT = 0

CCSDS_OMM_VERS = 2.0
CREATION_DATE  = 
ORIGINATOR     = 

OBJECT_NAME    = STARLINK-35851
OBJECT_ID      = 2025-254J
CENTER_NAME    = EARTH
REF_FRAME      = TEME
TIME_SYSTEM    = UTC
MEAN_ELEMENT_THEORY = SGP/SGP4

EPOCH          = 2025-12-04T08:00:01.999872
MEAN_MOTION    = 15.59328622
ECCENTRICITY   = .00013989
INCLINATION    = 53.1591
RA_OF_ASC_NODE = 316.8470
ARG_OF_PERICENTER = 74.9743
MEAN_ANOMALY   = 353.7534

EPHEMERIS_TYPE = 0
CLASSIFICATION_TYPE = U
NORAD_CAT_ID   = 66356
ELEMENT_SET_NO = 999
REV_AT_EPOCH   = 557
BSTAR          = -.28306912E-1
MEAN_MOTION_DOT = -.1994623E-1
MEAN_MOTION_DDOT = 0

CCSDS_OMM_VERS = 2.0
CREATION_DATE  = 
ORIGINATOR     = 

OBJECT_NAME    = STARLINK-35817
OBJECT_ID      = 2025-254K
CENTER_NAME    = EARTH
REF_FRAME      = TEME
TIME_SYSTEM    = UTC
MEAN_ELEMENT_THEORY = SGP/SGP4

EPOCH          = 2025-12-04T08:00:01.999872
MEAN_MOTION    = 15.59337912
ECCENTRICITY   = .00012939
INCLINATION    = 53.1592
RA_OF_ASC_NODE = 316.8430
ARG_OF_PERICENTER = 73.3802
MEAN_ANOMALY   = 357.2579

EPHEMERIS_TYPE = 0
CLASSIFICATION_TYPE = U
NORAD_CAT_ID   = 66357
ELEMENT_SET_NO = 999
REV_AT_EPOCH   = 557
BSTAR          = -.28439035E-1
MEAN_MOTION_DOT = -.2003323E-1
MEAN_MOTION_DDOT = 0

CCSDS_OMM_VERS = 2.0
CREATION_DATE  = 
ORIGINATOR     = 

OBJECT_NAME    = STARLINK-35807
OBJECT_ID      = 2025-254L
CENTER_NAME    = EARTH
REF_FRAME      = TEME
TIME_SYSTEM    = UTC
MEAN_ELEMENT_THEORY = SGP/SGP4

EPOCH          = 2025-12-04T08:00:01.999872
MEAN_MOTION    = 15.59337453
ECCENTRICITY   = .00013451
INCLINATION    = 53.1592
RA_OF_ASC_NODE = 316.8385
ARG_OF_PERICENTER = 71.3539
MEAN_ANOMALY   = 1.2009

EPHEMERIS_TYPE = 0
CLASSIFICATION_TYPE = U
NORAD_CAT_ID   = 66358
ELEMENT_SET_NO = 999
REV_AT_EPOCH   = 557
BSTAR          = -.28426366E-1
MEAN_MOTION_DOT = -.2002548E-1
MEAN_MOTION_DDOT = 0

CCSDS_OMM_VERS = 2.0
CREATION_DATE  = 
ORIGINATOR     = 

OBJECT_NAME    = STARLINK-35805
OBJECT_ID      = 2025-254M
CENTER_NAME    = EARTH
REF_FRAME      = TEME
TIME_SYSTEM    = UTC
MEAN_ELEMENT_THEORY = SGP/SGP4

EPOCH          = 2025-12-04T08:00:01.999872
MEAN_MOTION    = 15.59341331
ECCENTRICITY   = .00011957
INCLINATION    = 53.1593
RA_OF_ASC_NODE = 316.8352
ARG_OF_PERICENTER = 75.4657
MEAN_ANOMALY   = 359.0052

EPHEMERIS_TYPE = 0
CLASSIFICATION_TYPE = U
NORAD_CAT_ID   = 66359
ELEMENT_SET_NO = 999
REV_AT_EPOCH   = 554
BSTAR          = -.28521599E-1
MEAN_MOTION_DOT = -.2008572E-1
MEAN_MOTION_DDOT = 0

CCSDS_OMM_VERS = 2.0
CREATION_DATE  = 
ORIGINATOR     = 

OBJECT_NAME    = STARLINK-35823
OBJECT_ID      = 2025-254N
CENTER_NAME    = EARTH
REF_FRAME      = TEME
TIME_SYSTEM    = UTC
MEAN_ELEMENT_THEORY = SGP/SGP4

EPOCH          = 2025-12-04T08:00:01.999872
MEAN_MOTION    = 15.59341926
ECCENTRICITY   = .0001213
INCLINATION    = 53.1590
RA_OF_ASC_NODE = 316.8263
ARG_OF_PERICENTER = 73.8734
MEAN_ANOMALY   = 4.4311

EPHEMERIS_TYPE = 0
CLASSIFICATION_TYPE = U
NORAD_CAT_ID   = 66360
ELEMENT_SET_NO = 999
REV_AT_EPOCH   = 557
BSTAR          = -.28530889E-1
MEAN_MOTION_DOT = -.2009197E-1
MEAN_MOTION_DDOT = 0

CCSDS_OMM_VERS = 2.0
CREATION_DATE  = 
ORIGINATOR     = 

OBJECT_NAME    = STARLINK-35813
OBJECT_ID      = 2025-254P
CENTER_NAME    = EARTH
REF_FRAME      = TEME
TIME_SYSTEM    = UTC
MEAN_ELEMENT_THEORY = SGP/SGP4

EPOCH          = 2025-12-04T08:00:01.999872
MEAN_MOTION    = 15.59342121
ECCENTRICITY   = .00012172
INCLINATION    = 53.1592
RA_OF_ASC_NODE = 316.8313
ARG_OF_PERICENTER = 74.4652
MEAN_ANOMALY   = 1.9221

EPHEMERIS_TYPE = 0
CLASSIFICATION_TYPE = U
NORAD_CAT_ID   = 66361
ELEMENT_SET_NO = 999
REV_AT_EPOCH   = 557
BSTAR          = -.28532881E-1
MEAN_MOTION_DOT = -.2009336E-1
MEAN_MOTION_DDOT = 0

CCSDS_OMM_VERS = 2.0
CREATION_DATE  = 
ORIGINATOR     = 

OBJECT_NAME    = STARLINK-35822
OBJECT_ID      = 2025-254Q
CENTER_NAME    = EARTH
REF_FRAME      = TEME
TIME_SYSTEM    = UTC
MEAN_ELEMENT_THEORY = SGP/SGP4

EPOCH          = 2025-12-04T08:00:01.999872
MEAN_MOTION    = 15.59326110
ECCENTRICITY   = .00014671
INCLINATION    = 53.1591
RA_OF_ASC_NODE = 316.8190
ARG_OF_PERICENTER = 71.4156
MEAN_ANOMALY   = 10.7310

EPHEMERIS_TYPE = 0
CLASSIFICATION_TYPE = U
NORAD_CAT_ID   = 66362
ELEMENT_SET_NO = 999
REV_AT_EPOCH   = 557
BSTAR          = -.28247394E-1
MEAN_MOTION_DOT = -.1990829E-1
MEAN_MOTION_DDOT = 0

CCSDS_OMM_VERS = 2.0
CREATION_DATE  = 
ORIGINATOR     = 

OBJECT_NAME    = STARLINK-35806
OBJECT_ID      = 2025-254R
CENTER_NAME    = EARTH
REF_FRAME      = TEME
TIME_SYSTEM    = UTC
MEAN_ELEMENT_THEORY = SGP/SGP4

EPOCH          = 2025-12-04T08:00:01.999872
MEAN_MOTION    = 15.59337070
ECCENTRICITY   = .00013619
INCLINATION    = 53.1589
RA_OF_ASC_NODE = 316.8228
ARG_OF_PERICENTER = 71.1018
MEAN_ANOMALY   = 9.1207

EPHEMERIS_TYPE = 0
CLASSIFICATION_TYPE = U
NORAD_CAT_ID   = 66363
ELEMENT_SET_NO = 999
REV_AT_EPOCH   = 554
BSTAR          = -.28418182E-1
MEAN_MOTION_DOT = -.200203E-1
MEAN_MOTION_DDOT = 0

